COMMENT,ORIGINATOR,NORAD_CAT_ID,OBJECT_NAME,OBJECT_TYPE,CLASSIFICATION_TYPE,INTLDES,EPOCH,EPOCH_MICROSECONDS,MEAN_MOTION,ECCENTRICITY,INCLINATION,RA_OF_ASC_NODE,ARG_OF_PERICENTER,MEAN_ANOMALY,EPHEMERIS_TYPE,ELEMENT_SET_NO,REV_AT_EPOCH,BSTAR,MEAN_MOTION_DOT,MEAN_MOTION_DDOT,FILE,TLE_LINE0,TLE_LINE1,TLE_LINE2,OBJECT_ID,OBJECT_NUMBER,SEMIMAJOR_AXIS,PERIOD,APOGEE,PERIGEE
"GENERATED VIA SPACETRACK.ORG API","JSPOC","40958","LQSAT","PAYLOAD","U","15057A","2016-01-08 20:14:38","198688","14.72786131","0.0017404","98.0322","85.7305","310.6676","49.2998","0","999","1378","4.1367e-05","2.14e-06","0","1977796","0 LQSAT","1 40958U 15057A   16008.84349767  .00000214  00000-0  41367-4 0  9999","2 40958  98.0322  85.7305 0017404 310.6676  49.2998 14.72786131 13785","2015-057A","40958","7030.324","97.773","664.425","639.954"
"GENERATED VIA SPACETRACK.ORG API","JSPOC","25116","ORBCOMM FM 9","PAYLOAD","U","97084E","2016-01-08 20:14:47","472000","14.38146644","0.0006775","45.0162","199.8265","145.0853","215.044","0","999","94467","0.00012797","2.49e-06","0","1977778","0 ORBCOMM FM 9","1 25116U 97084E   16008.84360500  .00000249  00000-0  12797-3 0  9998","2 25116  45.0162 199.8265 0006775 145.0853 215.0440 14.38146644944673","1997-084E","25116","7142.765","100.128","769.469","759.791"
"GENERATED VIA SPACETRACK.ORG API","JSPOC","26619","EO 1","PAYLOAD","U","00075A","2016-01-08 20:14:50","862336","14.64180215","0.0008941","97.9042","55.1566","338.4026","21.6812","0","999","80665","2.6988e-05","9.7e-07","0","1977870","0 EO 1","1 26619U 00075A   16008.84364424  .00000097  00000-0  26988-4 0  9999","2 26619  97.9042  55.1566 0008941 338.4026  21.6812 14.64180215806650","2000-075A","26619","7057.845","98.348","686.020","673.400"
"GENERATED VIA SPACETRACK.ORG API","JSPOC","7440","COSMOS 682","PAYLOAD","U","74072F","2016-01-08 20:14:57","650784","12.5124593","0.0008475","74.0371","307.5774","31.6406","65.5925","0","999","88683","-3.7824e-05","-2.2e-07","0","1977792","0 COSMOS 682","1 07440U 74072F   16008.84372281 -.00000022  00000-0 -37824-4 0  9999","2 07440  74.0371 307.5774 0008475  31.6406  65.5925 12.51245930886833","1974-072F","7440","7837.424","115.085","1465.932","1452.647"
"GENERATED VIA SPACETRACK.ORG API","JSPOC","29486","NAVSTAR 58 (USA 190)","PAYLOAD","U","06042A","2016-01-08 20:14:57","606720","2.00564011","0.0084488","55.738","303.267","332.2394","36.2564","0","999","6797","0","-4.1e-07","0","1978186","0 NAVSTAR 58 (USA 190)","1 29486U 06042A   16008.84372230 -.00000041 +00000-0 +00000-0 0  9991","2 29486 055.7380 303.2670 0084488 332.2394 036.2564 02.00564011067972","2006-042A","29486","26560.311","717.975","20406.579","19957.774"
"GENERATED VIA SPACETRACK.ORG API","JSPOC","11474","MOLNIYA 1-44","PAYLOAD","U","79070A","2016-01-08 20:15:00","116640","11.17984679","0.2214949","62.0983","63.4162","285.3416","51.4764","0","999","50223","0.00062891","0.00113767","2.1818e-06","1977870","0 MOLNIYA 1-44","1 11474U 79070A   16008.84375135  .00113767  21818-5  62891-3 0  9990","2 11474  62.0983  63.4162 2214949 285.3416  51.4764 11.17984679502231","1979-070A","11474","8448.467","128.803","3941.625","199.040"
"GENERATED VIA SPACETRACK.ORG API","JSPOC","20474","CZ-3 R/B","ROCKET BODY","U","90011B","2016-01-08 20:15:02","347488","2.96650869","0.6765954","30.1615","221.247","61.6098","349.7122","0","999","3559","0.001804","0.00012414","0","1978186","0 CZ-3 R/B","1 20474U 90011B   16008.84377717 +.00012414 +00000-0 +18040-2 0  9994","2 20474 030.1615 221.2470 6765954 061.6098 349.7122 02.96650869035596","1990-011B","20474","20459.958","485.419","27924.938","238.709"
"GENERATED VIA SPACETRACK.ORG API","JSPOC","40087","ORBCOMM FM 107","PAYLOAD","U","14040B","2016-01-08 20:15:05","208192","14.53020877","0.002489","47.0076","18.2789","359.616","0.47","0","999","7912","6.9496e-05","1.23e-06","0","1977781","0 ORBCOMM FM 107","1 40087U 14040B   16008.84381028  .00000123  00000-0  69496-4 0  9991","2 40087  47.0076  18.2789 0024890 359.6160   0.4700 14.53020877 79120","2014-040B","40087","7093.936","99.103","733.457","698.144"
"GENERATED VIA SPACETRACK.ORG API","JSPOC","32783","CARTOSAT 2A","PAYLOAD","U","08021A","2016-01-08 20:15:17","950464","14.78638674","0.0012453","97.9998","69.4775","213.3983","146.6433","0","999","41550","9.4522e-06","1.7e-07","0","1977809","0 CARTOSAT 2A","1 32783U 08021A   16008.84395776  .00000017  00000-0  94522-5 0  9993","2 32783  97.9998  69.4775 0012453 213.3983 146.6433 14.78638674415504","2008-021A","32783","7011.761","97.386","642.358","624.894"
"GENERATED VIA SPACETRACK.ORG API","JSPOC","3598","ATLAS CENTAUR R/B","ROCKET BODY","U","68110B","2016-01-08 20:15:31","160160","14.54162248","0.004998","34.9947","63.4586","286.7915","72.7299","0","999","46905","4.5989e-05","1.8e-06","0","1978186","0 ATLAS CENTAUR R/B","1  3598U 68110B   16008.84411065 +.00000180 +00000-0 +45989-4 0  9993","2  3598 034.9947 063.4586 0049980 286.7915 072.7299 14.54162248469050","1968-110B","3598","7090.223","99.026","747.525","676.651"
"GENERATED VIA SPACETRACK.ORG API","JSPOC","6207","SL-8 R/B","ROCKET BODY","U","72074B","2016-01-08 20:15:35","577792","13.7557395","0.002053","65.8233","141.1032","354.8449","169.5006","0","999","17246","5.8737e-06","-7.5e-07","0","1977810","0 SL-8 R/B","1 06207U 72074B   16008.84416178 -.00000075  00000-0  58737-5 0  9997","2 06207  65.8233 141.1032 0020530 354.8449 169.5006 13.75573950172465","1972-074B","6207","7357.764","104.683","994.734","964.523"
"GENERATED VIA SPACETRACK.ORG API","JSPOC","13259","COSMOS 1375","PAYLOAD","U","82055A","2016-01-08 20:15:36","612864","13.82744714","0.0030876","65.8312","239.4198","271.5026","137.6172","0","999","68676","0.00019588","1.32e-06","0","1977812","0 COSMOS 1375","1 13259U 82055A   16008.84417376  .00000132  00000-0  19588-3 0  9995","2 13259  65.8312 239.4198 0030876 271.5026 137.6172 13.82744714686761","1982-055A","13259","7332.304","104.140","976.808","931.530"
"GENERATED VIA SPACETRACK.ORG API","JSPOC","23527","SL-8 R/B","ROCKET BODY","U","95012B","2016-01-08 20:15:48","592224","13.73526823","0.0019479","82.9419","59.7105","342.6703","68.6411","0","999","4269","-3.4149e-07","1.5e-07","0","1977808","0 SL-8 R/B","1 23527U 95012B   16008.84431241  .00000015  00000-0 -34149-6 0  9992","2 23527  82.9419  59.7105 0019479 342.6703  68.6411 13.73526823 42693","1995-012B","23527","7365.073","104.839","1001.284","972.591"
"GENERATED VIA SPACETRACK.ORG API","JSPOC","6849","COSMOS 592","PAYLOAD","U","73069E","2016-01-08 20:16:02","684064","12.63846167","0.0097933","74.0004","142.0579","104.4055","62.4488","0","999","95003","-0.00011434","-3.7e-07","0","1978186","0 COSMOS 592","1  6849U 73069E   16008.84447551 -.00000037 +00000-0 -11434-3 0  9993","2  6849 074.0004 142.0579 0097933 104.4055 062.4488 12.63846167950035","1973-069E","6849","7785.246","113.937","1483.354","1330.868"
"GENERATED VIA SPACETRACK.ORG API","JSPOC","20552","COSMOS 2067","PAYLOAD","U","90029D","2016-01-08 20:16:11","392320","12.57877403","0.0040131","73.9819","127.0898","195.8547","330.0643","0","999","18280","-8.6496e-05","-3.1e-07","0","1978186","0 COSMOS 2067","1 20552U 90029D   16008.84457630 -.00000031 +00000-0 -86496-4 0  9999","2 20552 073.9819 127.0898 0040131 195.8547 330.0643 12.57877403182808","1990-029D","20552","7809.854","114.478","1463.061","1400.378"
"GENERATED VIA SPACETRACK.ORG API","JSPOC","25104","IRIDIUM 45","PAYLOAD","U","97082A","2016-01-08 20:16:12","56736","14.34213577","0.0001754","86.3986","146.8692","141.399","218.7332","0","999","94480","5.7935e-05","1.82e-06","0","1978186","0 IRIDIUM 45","1 25104U 97082A   16008.84458399 +.00000182 +00000-0 +57935-4 0  9997","2 25104 086.3986 146.8692 0001754 141.3990 218.7332 14.34213577944802","1997-082A","25104","7155.818","100.403","778.938","776.427"
"GENERATED VIA SPACETRACK.ORG API","JSPOC","7265","COSMOS 641","PAYLOAD","U","74024A","2016-01-08 20:16:15","156768","12.57298027","0.0060966","74.0181","59.7954","322.154","154.3345","0","999","91444","0.00013652","6e-08","0","1978186","0 COSMOS 641","1  7265U 74024A   16008.84461987 +.00000006 +00000-0 +13652-3 0  9995","2  7265 074.0181 059.7954 0060966 322.1540 154.3345 12.57298027914446","1974-024A","7265","7812.253","114.531","1481.747","1386.490"
"GENERATED VIA SPACETRACK.ORG API","JSPOC","2872","SURCAL 159","PAYLOAD","U","67053F","2016-01-08 20:16:45","765696","13.98664625","0.0004858","69.9752","281.217","18.0055","342.1223","0","999","47701","4.8136e-05","1.6e-07","0","1978186","0 SURCAL 159","1  2872U 67053F   16008.84497414 +.00000016 +00000-0 +48136-4 0  9999","2  2872 069.9752 281.2170 0004858 018.0055 342.1223 13.98664625477010","1967-053F","2872","7276.559","102.955","901.959","894.890"
"GENERATED VIA SPACETRACK.ORG API","JSPOC","16453","COSMOS 1720","PAYLOAD","U","86002E","2016-01-08 20:17:13","117344","12.50581167","0.002882","73.9908","308.2395","249.1515","140.2665","0","999","36951","-8.3039e-05","-2.9e-07","0","1978186","0 COSMOS 1720","1 16453U 86002E   16008.84529071 -.00000029 +00000-0 -83039-4 0  9996","2 16453 073.9908 308.2395 0028820 249.1515 140.2665 12.50581167369518","1986-002E","16453","7840.201","115.146","1484.662","1439.471"
"GENERATED VIA SPACETRACK.ORG API","JSPOC","15370","SL-14 R/B","ROCKET BODY","U","84111B","2016-01-08 20:17:33","123264","14.834991","0.0020628","82.5176","139.9359","350.7585","9.3247","0","999","68628","1.8611e-05","1.77e-06","0","1977931","0 SL-14 R/B","1 15370U 84111B   16008.84552226  .00000177  00000-0  18611-4 0  9996","2 15370  82.5176 139.9359 0020628 350.7585   9.3247 14.83499100686281","1984-111B","15370","6996.437","97.067","632.735","603.870"
